{
    "links": {
        "self": "http://www.neowsapp.com/rest/v1/neo/3831609?api_key=iIulBulltgU6a56xZRHN4H3l9WmuAYTsLGpBGhQ2"
    },
    "id": "3831609",
    "neo_reference_id": "3831609",
    "name": "(2018 TG3)",
    "designation": "2018 TG3",
    "nasa_jpl_url": "http://ssd.jpl.nasa.gov/sbdb.cgi?sstr=3831609",
    "absolute_magnitude_h": 26.9,
    "estimated_diameter": {
        "kilometers": {
            "estimated_diameter_min": 0.0110803882,
            "estimated_diameter_max": 0.0247765013
        },
        "meters": {
            "estimated_diameter_min": 11.0803882126,
            "estimated_diameter_max": 24.7765012606
        },
        "miles": {
            "estimated_diameter_min": 0.0068850319,
            "estimated_diameter_max": 0.0153953994
        },
        "feet": {
            "estimated_diameter_min": 36.3529808636,
            "estimated_diameter_max": 81.2877363957
        }
    },
    "is_potentially_hazardous_asteroid": false,
    "close_approach_data": [
        {
            "close_approach_date": "1924-07-15",
            "close_approach_date_full": "1924-Jul-15 11:25",
            "epoch_date_close_approach": -1434717300000,
            "relative_velocity": {
                "kilometers_per_second": "16.4209801659",
                "kilometers_per_hour": "59115.5285973487",
                "miles_per_hour": "36732.0905331693"
            },
            "miss_distance": {
                "astronomical": "0.2762300676",
                "lunar": "107.4534962964",
                "kilometers": "41323429.742916012",
                "miles": "25677188.5751924856"
            },
            "orbiting_body": "Earth"
        },
        {
            "close_approach_date": "2018-10-04",
            "close_approach_date_full": "2018-Oct-04 05:35",
            "epoch_date_close_approach": 1538631300000,
            "relative_velocity": {
                "kilometers_per_second": "10.2584557916",
                "kilometers_per_hour": "36930.4408497582",
                "miles_per_hour": "22947.1397602289"
            },
            "miss_distance": {
                "astronomical": "0.0337335982",
                "lunar": "13.1223696998",
                "kilometers": "5046474.438155834",
                "miles": "3135733.8099611492"
            },
            "orbiting_body": "Earth"
        }
    ],
    "orbital_data": {
        "orbit_id": "2",
        "orbit_determination_date": "2018-11-05 05:29:03",
        "first_observation_date": "2018-10-06",
        "last_observation_date": "2018-10-09",
        "data_arc_in_days": 3,
        "observations_used": 27,
        "orbit_uncertainty": "8",
        "minimum_orbit_intersection": ".0238342",
        "jupiter_tisserand_invariant": "3.291",
        "epoch_osculation": "2458398.5",
        "eccentricity": ".5790170901585147",
        "semi_major_axis": "2.364071752820593",
        "inclination": "7.566375450634509",
        "ascending_node_longitude": "193.8123605828344",
        "orbital_period": "1327.667754811294",
        "perihelion_distance": ".9952338055764738",
        "perihelion_argument": "152.3869260268364",
        "aphelion_distance": "3.732909700064712",
        "perihelion_time": "2458376.624907103828",
        "mean_anomaly": "5.931479027101343",
        "mean_motion": ".2711521754561012",
        "equinox": "J2000",
        "orbit_class": {
            "orbit_class_type": "APO",
            "orbit_class_description": "Near-Earth asteroid orbits which cross the Earth’s orbit similar to that of 1862 Apollo",
            "orbit_class_range": "a (semi-major axis) > 1.0 AU; q (perihelion) < 1.017 AU"
        }
    },
    "is_sentry_object": false
}